[{"OBJECT_NAME":"STARLINK-4594","OBJECT_ID":"2022-104BC","EPOCH":"2026-03-09T17:03:07.355520","MEAN_MOTION":15.08838209,"ECCENTRICITY":0.00012271,"INCLINATION":53.2169,"RA_OF_ASC_NODE":223.6608,"ARG_OF_PERICENTER":83.5338,"MEAN_ANOMALY":276.5794,"EPHEMERIS_TYPE":0,"CLASSIFICATION_TYPE":"U","NORAD_CAT_ID":53638,"ELEMENT_SET_NO":999,"REV_AT_EPOCH":19623,"BSTAR":2.762886e-6,"MEAN_MOTION_DOT":-2.44e-6,"MEAN_MOTION_DDOT":0},{"OBJECT_NAME":"DELTA 1 DEB","OBJECT_ID":"1972-058BG","EPOCH":"2026-03-09T20:01:49.581696","MEAN_MOTION":14.88535429,"ECCENTRICITY":0.00965988,"INCLINATION":98.8237,"RA_OF_ASC_NODE":167.9558,"ARG_OF_PERICENTER":346.289,"MEAN_ANOMALY":13.5703,"EPHEMERIS_TYPE":0,"CLASSIFICATION_TYPE":"U","NORAD_CAT_ID":7890,"ELEMENT_SET_NO":999,"REV_AT_EPOCH":62566,"BSTAR":0.0011014398,"MEAN_MOTION_DOT":0.00011112,"MEAN_MOTION_DDOT":0}]
